start=new Date('2022-05-28T00:00:00.000Z').valueOf();
sats=[{"RA_OF_ASC_NODE":"255.3468","OBJECT_TYPE":"PAYLOAD","SEMIMAJOR_AXIS":"6925.369","CENTER_NAME":"EARTH","MEAN_ANOMALY":"285.9847","REF_FRAME":"TEME","SITE":"AFETR","NORAD_CAT_ID":"48094","PERIAPSIS":"546.063","OBJECT_ID":"2021-027C","ELEMENT_SET_NO":"999","TLE_LINE1":"1 48094U 21027C   22147.76108251  .00002766  00000-0  20455-3 0  9993","MEAN_MOTION":"15.06393213","EPOCH":"2022-05-27T18:15:57.528864","CLASSIFICATION_TYPE":"U","REV_AT_EPOCH":"6413","OBJECT_NAME":"STARLINK-2412","PERIOD":"95.593","FILE":"3468079","MEAN_MOTION_DOT":"0.00002766","EPHEMERIS_TYPE":"0","INCLINATION":"53.0561","ECCENTRICITY":"0.00016910","MEAN_MOTION_DDOT":"0.0000000000000","TIME_SYSTEM":"UTC","GP_ID":"204715412","LAUNCH_DATE":"2021-04-07","DECAY_DATE":null,"TLE_LINE2":"2 48094  53.0561 255.3468 0001691  74.1329 285.9847 15.06393213 64133","MEAN_ELEMENT_THEORY":"SGP4","APOAPSIS":"548.405","BSTAR":"0.00020455000000","RCS_SIZE":"LARGE","COUNTRY_CODE":"US","ARG_OF_PERICENTER":"74.1329"},{"TLE_LINE1":"1 48095U 21027D   22147.30470344 -.00112507  00000-0 -78278-2 0  9991","ELEMENT_SET_NO":"999","MEAN_MOTION":"15.05551913","REF_FRAME":"TEME","SITE":"AFETR","NORAD_CAT_ID":"48095","PERIAPSIS":"545.634","OBJECT_ID":"2021-027D","REV_AT_EPOCH":"6407","OBJECT_NAME":"STARLINK-2414","PERIOD":"95.646","FILE":"3467585","EPOCH":"2022-05-27T07:18:46.377216","CLASSIFICATION_TYPE":"U","OBJECT_TYPE":"PAYLOAD","RA_OF_ASC_NODE":"257.3946","CENTER_NAME":"EARTH","MEAN_ANOMALY":"16.8619","SEMIMAJOR_AXIS":"6927.949","TLE_LINE2":"2 48095  53.0542 257.3946 0006033 343.2169  16.8619 15.05551913 64076","MEAN_ELEMENT_THEORY":"SGP4","APOAPSIS":"553.994","BSTAR":"-0.00782780000000","LAUNCH_DATE":"2021-04-07","DECAY_DATE":null,"COUNTRY_CODE":"US","ARG_OF_PERICENTER":"343.2169","RCS_SIZE":"MEDIUM","INCLINATION":"53.0542","ECCENTRICITY":"0.00060330","MEAN_MOTION_DOT":"-0.00112507","EPHEMERIS_TYPE":"0","MEAN_MOTION_DDOT":"0.0000000000000","GP_ID":"204678697","TIME_SYSTEM":"UTC"},{"SEMIMAJOR_AXIS":"6925.400","CENTER_NAME":"EARTH","MEAN_ANOMALY":"298.9168","RA_OF_ASC_NODE":"255.1261","OBJECT_TYPE":"PAYLOAD","EPOCH":"2022-05-27T19:24:58.502880","CLASSIFICATION_TYPE":"U","REV_AT_EPOCH":"6413","PERIOD":"95.593","OBJECT_NAME":"STARLINK-2417","FILE":"3468079","REF_FRAME":"TEME","SITE":"AFETR","NORAD_CAT_ID":"48096","OBJECT_ID":"2021-027E","PERIAPSIS":"546.069","TLE_LINE1":"1 48096U 21027E   22147.80901045  .00000169  00000-0  30277-4 0  9991","MEAN_MOTION":"15.06383178","ELEMENT_SET_NO":"999","MEAN_MOTION_DDOT":"0.0000000000000","GP_ID":"204715904","TIME_SYSTEM":"UTC","MEAN_MOTION_DOT":"0.00000169","EPHEMERIS_TYPE":"0","INCLINATION":"53.0544","ECCENTRICITY":"0.00017270","RCS_SIZE":"LARGE","COUNTRY_CODE":"US","ARG_OF_PERICENTER":"61.1994","LAUNCH_DATE":"2021-04-07","DECAY_DATE":null,"TLE_LINE2":"2 48096  53.0544 255.1261 0001727  61.1994 298.9168 15.06383178 64138","MEAN_ELEMENT_THEORY":"SGP4","BSTAR":"0.00003027700000","APOAPSIS":"548.461"},{"INCLINATION":"53.0549","ECCENTRICITY":"0.00015470","EPHEMERIS_TYPE":"0","MEAN_MOTION_DOT":"-0.00001893","TIME_SYSTEM":"UTC","GP_ID":"204714663","MEAN_MOTION_DDOT":"0.0000000000000","APOAPSIS":"548.306","BSTAR":"-0.00010825000000","TLE_LINE2":"2 48097  53.0549 235.5248 0001547  76.4960 283.6202 15.06393274 64401","MEAN_ELEMENT_THEORY":"SGP4","DECAY_DATE":null,"LAUNCH_DATE":"2021-04-07","ARG_OF_PERICENTER":"76.4960","COUNTRY_CODE":"US","RCS_SIZE":"LARGE","OBJECT_TYPE":"PAYLOAD","RA_OF_ASC_NODE":"235.5248","MEAN_ANOMALY":"283.6202","CENTER_NAME":"EARTH","SEMIMAJOR_AXIS":"6925.369","MEAN_MOTION":"15.06393274","TLE_LINE1":"1 48097U 21027F   22147.72237210 -.00001893  00000-0 -10825-3 0  9992","ELEMENT_SET_NO":"999","PERIAPSIS":"546.163","OBJECT_ID":"2021-027F","SITE":"AFETR","REF_FRAME":"TEME","NORAD_CAT_ID":"48097","PERIOD":"95.593","OBJECT_NAME":"STARLINK-2418","FILE":"3468079","REV_AT_EPOCH":"6440","CLASSIFICATION_TYPE":"U","EPOCH":"2022-05-27T17:20:12.949440"},{"RA_OF_ASC_NODE":"245.3282","OBJECT_TYPE":"PAYLOAD","SEMIMAJOR_AXIS":"6925.370","CENTER_NAME":"EARTH","MEAN_ANOMALY":"294.1224","SITE":"AFETR","REF_FRAME":"TEME","NORAD_CAT_ID":"48098","OBJECT_ID":"2021-027G","PERIAPSIS":"546.217","TLE_LINE1":"1 48098U 21027G   22147.76568607 -.00000816  00000-0 -35910-4 0  9991","ELEMENT_SET_NO":"999","MEAN_MOTION":"15.06392925","EPOCH":"2022-05-27T18:22:35.276448","CLASSIFICATION_TYPE":"U","REV_AT_EPOCH":"6426","PERIOD":"95.593","OBJECT_NAME":"STARLINK-2421","FILE":"3468079","MEAN_MOTION_DOT":"-0.00000816","EPHEMERIS_TYPE":"0","ECCENTRICITY":"0.00014710","INCLINATION":"53.0552","MEAN_MOTION_DDOT":"0.0000000000000","TIME_SYSTEM":"UTC","GP_ID":"204714913","LAUNCH_DATE":"2021-04-07","DECAY_DATE":null,"TLE_LINE2":"2 48098  53.0552 245.3282 0001471  65.9919 294.1224 15.06392925 64263","MEAN_ELEMENT_THEORY":"SGP4","APOAPSIS":"548.254","BSTAR":"-0.00003591000000","RCS_SIZE":"LARGE","COUNTRY_CODE":"US","ARG_OF_PERICENTER":"65.9919"},{"RCS_SIZE":"LARGE","COUNTRY_CODE":"US","ARG_OF_PERICENTER":"67.2177","LAUNCH_DATE":"2021-04-07","DECAY_DATE":null,"TLE_LINE2":"2 48099  53.0548 255.6764 0001554  67.2177 292.8976 15.06385874 64119","MEAN_ELEMENT_THEORY":"SGP4","APOAPSIS":"548.333","BSTAR":"0.00004860600000","MEAN_MOTION_DDOT":"0.0000000000000","GP_ID":"204716160","TIME_SYSTEM":"UTC","MEAN_MOTION_DOT":"0.00000442","EPHEMERIS_TYPE":"0","INCLINATION":"53.0548","ECCENTRICITY":"0.00015540","EPOCH":"2022-05-27T16:29:49.314912","CLASSIFICATION_TYPE":"U","REV_AT_EPOCH":"6411","OBJECT_NAME":"STARLINK-2428","PERIOD":"95.593","FILE":"3468079","REF_FRAME":"TEME","SITE":"AFETR","NORAD_CAT_ID":"48099","OBJECT_ID":"2021-027H","PERIAPSIS":"546.181","ELEMENT_SET_NO":"999","TLE_LINE1":"1 48099U 21027H   22147.68737633  .00000442  00000-0  48606-4 0  9999","MEAN_MOTION":"15.06385874","SEMIMAJOR_AXIS":"6925.392","CENTER_NAME":"EARTH","MEAN_ANOMALY":"292.8976","RA_OF_ASC_NODE":"255.6764","OBJECT_TYPE":"PAYLOAD"},{"NORAD_CAT_ID":"48100","SITE":"AFETR","REF_FRAME":"TEME","OBJECT_ID":"2021-027J","PERIAPSIS":"546.140","ELEMENT_SET_NO":"999","TLE_LINE1":"1 48100U 21027J   22147.71500509  .00000154  00000-0  29223-4 0  9990","MEAN_MOTION":"15.06390504","EPOCH":"2022-05-27T17:09:36.439776","CLASSIFICATION_TYPE":"U","REV_AT_EPOCH":"6440","FILE":"3468079","PERIOD":"95.593","OBJECT_NAME":"STARLINK-2430","RA_OF_ASC_NODE":"235.5536","OBJECT_TYPE":"PAYLOAD","SEMIMAJOR_AXIS":"6925.378","CENTER_NAME":"EARTH","MEAN_ANOMALY":"294.4201","LAUNCH_DATE":"2021-04-07","DECAY_DATE":null,"MEAN_ELEMENT_THEORY":"SGP4","TLE_LINE2":"2 48100  53.0560 235.5536 0001592  65.6954 294.4201 15.06390504 64404","APOAPSIS":"548.345","BSTAR":"0.00002922300000","RCS_SIZE":"MEDIUM","COUNTRY_CODE":"US","ARG_OF_PERICENTER":"65.6954","MEAN_MOTION_DOT":"0.00000154","EPHEMERIS_TYPE":"0","INCLINATION":"53.0560","ECCENTRICITY":"0.00015920","MEAN_MOTION_DDOT":"0.0000000000000","GP_ID":"204716404","TIME_SYSTEM":"UTC"},{"OBJECT_TYPE":"PAYLOAD","RA_OF_ASC_NODE":"245.6309","CENTER_NAME":"EARTH","MEAN_ANOMALY":"291.1752","SEMIMAJOR_AXIS":"6925.366","ELEMENT_SET_NO":"999","TLE_LINE1":"1 48101U 21027K   22147.69839837 -.00002342  00000-0 -13838-3 0  9994","MEAN_MOTION":"15.06394276","REF_FRAME":"TEME","SITE":"AFETR","NORAD_CAT_ID":"48101","PERIAPSIS":"546.022","OBJECT_ID":"2021-027K","REV_AT_EPOCH":"6426","PERIOD":"95.593","OBJECT_NAME":"STARLINK-2436","FILE":"3468079","EPOCH":"2022-05-27T16:45:41.619168","CLASSIFICATION_TYPE":"U","ECCENTRICITY":"0.00017460","INCLINATION":"53.0553","MEAN_MOTION_DOT":"-0.00002342","EPHEMERIS_TYPE":"0","MEAN_MOTION_DDOT":"0.0000000000000","TIME_SYSTEM":"UTC","GP_ID":"204715163","TLE_LINE2":"2 48101  53.0553 245.6309 0001746  68.9424 291.1752 15.06394276 64265","MEAN_ELEMENT_THEORY":"SGP4","APOAPSIS":"548.440","BSTAR":"-0.00013838000000","LAUNCH_DATE":"2021-04-07","DECAY_DATE":null,"COUNTRY_CODE":"US","ARG_OF_PERICENTER":"68.9424","RCS_SIZE":"LARGE"},{"DECAY_DATE":null,"LAUNCH_DATE":"2021-04-07","APOAPSIS":"548.478","BSTAR":"0.00015607000000","MEAN_ELEMENT_THEORY":"SGP4","TLE_LINE2":"2 48102  53.0570 236.3332 0001741  69.9961 290.1215 15.06380677 64375","RCS_SIZE":"LARGE","ARG_OF_PERICENTER":"69.9961","COUNTRY_CODE":"US","EPHEMERIS_TYPE":"0","MEAN_MOTION_DOT":"0.00002043","ECCENTRICITY":"0.00017410","INCLINATION":"53.0570","TIME_SYSTEM":"UTC","GP_ID":"204679438","MEAN_MOTION_DDOT":"0.0000000000000","OBJECT_ID":"2021-027L","PERIAPSIS":"546.067","NORAD_CAT_ID":"48102","REF_FRAME":"TEME","SITE":"AFETR","MEAN_MOTION":"15.06380677","TLE_LINE1":"1 48102U 21027L   22147.54177115  .00002043  00000-0  15607-3 0  9995","ELEMENT_SET_NO":"999","CLASSIFICATION_TYPE":"U","EPOCH":"2022-05-27T13:00:09.027360","FILE":"3467585","PERIOD":"95.593","OBJECT_NAME":"STARLINK-2437","REV_AT_EPOCH":"6437","RA_OF_ASC_NODE":"236.3332","OBJECT_TYPE":"PAYLOAD","SEMIMAJOR_AXIS":"6925.408","MEAN_ANOMALY":"290.1215","CENTER_NAME":"EARTH"},{"RA_OF_ASC_NODE":"236.2960","OBJECT_TYPE":"PAYLOAD","SEMIMAJOR_AXIS":"6925.330","CENTER_NAME":"EARTH","MEAN_ANOMALY":"298.1987","REF_FRAME":"TEME","SITE":"AFETR","NORAD_CAT_ID":"48103","PERIAPSIS":"546.208","OBJECT_ID":"2021-027M","ELEMENT_SET_NO":"999","TLE_LINE1":"1 48103U 21027M   22147.55187093  .00000127  00000-0  27405-4 0  9994","MEAN_MOTION":"15.06405937","EPOCH":"2022-05-27T13:14:41.648352","CLASSIFICATION_TYPE":"U","REV_AT_EPOCH":"6397","OBJECT_NAME":"STARLINK-2438","PERIOD":"95.592","FILE":"3467087","MEAN_MOTION_DOT":"0.00000127","EPHEMERIS_TYPE":"0","INCLINATION":"53.0543","ECCENTRICITY":"0.00014260","MEAN_MOTION_DDOT":"0.0000000000000","TIME_SYSTEM":"UTC","GP_ID":"204645506","LAUNCH_DATE":"2021-04-07","DECAY_DATE":null,"TLE_LINE2":"2 48103  53.0543 236.2960 0001426  61.9146 298.1987 15.06405937 63975","MEAN_ELEMENT_THEORY":"SGP4","BSTAR":"0.00002740500000","APOAPSIS":"548.183","RCS_SIZE":"LARGE","COUNTRY_CODE":"US","ARG_OF_PERICENTER":"61.9146"}];
